CCSDS_OMM_VERS = 2.0
CREATION_DATE  = 
ORIGINATOR     = 

OBJECT_NAME    = STARLINK-35729
OBJECT_ID      = 2025-280S
CENTER_NAME    = EARTH
REF_FRAME      = TEME
TIME_SYSTEM    = UTC
MEAN_ELEMENT_THEORY = SGP/SGP4

EPOCH          = 2025-12-15T06:00:04.999968
MEAN_MOTION    = 15.71828932
ECCENTRICITY   = .00033791
INCLINATION    = 69.9959
RA_OF_ASC_NODE = 191.6823
ARG_OF_PERICENTER = 269.8792
MEAN_ANOMALY   = 320.8661

EPHEMERIS_TYPE = 0
CLASSIFICATION_TYPE = U
NORAD_CAT_ID   = 66837
ELEMENT_SET_NO = 999
REV_AT_EPOCH   = 330
BSTAR          = -.18108633E-1
MEAN_MOTION_DOT = -.2073379E-1
MEAN_MOTION_DDOT = 0

CCSDS_OMM_VERS = 2.0
CREATION_DATE  = 
ORIGINATOR     = 

OBJECT_NAME    = STARLINK-35886
OBJECT_ID      = 2025-280T
CENTER_NAME    = EARTH
REF_FRAME      = TEME
TIME_SYSTEM    = UTC
MEAN_ELEMENT_THEORY = SGP/SGP4

EPOCH          = 2025-12-15T06:00:04.999968
MEAN_MOTION    = 15.71822479
ECCENTRICITY   = .00032927
INCLINATION    = 69.9959
RA_OF_ASC_NODE = 191.6775
ARG_OF_PERICENTER = 270.7365
MEAN_ANOMALY   = 323.8451

EPHEMERIS_TYPE = 0
CLASSIFICATION_TYPE = U
NORAD_CAT_ID   = 66838
ELEMENT_SET_NO = 999
REV_AT_EPOCH   = 330
BSTAR          = -.18041198E-1
MEAN_MOTION_DOT = -.2066003E-1
MEAN_MOTION_DDOT = 0

CCSDS_OMM_VERS = 2.0
CREATION_DATE  = 
ORIGINATOR     = 

OBJECT_NAME    = STARLINK-35717
OBJECT_ID      = 2025-280U
CENTER_NAME    = EARTH
REF_FRAME      = TEME
TIME_SYSTEM    = UTC
MEAN_ELEMENT_THEORY = SGP/SGP4

EPOCH          = 2025-12-15T06:00:04.999968
MEAN_MOTION    = 15.71834617
ECCENTRICITY   = .00035611
INCLINATION    = 69.9960
RA_OF_ASC_NODE = 191.6796
ARG_OF_PERICENTER = 269.4895
MEAN_ANOMALY   = 323.1661

EPHEMERIS_TYPE = 0
CLASSIFICATION_TYPE = U
NORAD_CAT_ID   = 66839
ELEMENT_SET_NO = 999
REV_AT_EPOCH   = 330
BSTAR          = -.18144922E-1
MEAN_MOTION_DOT = -.2077672E-1
MEAN_MOTION_DDOT = 0

CCSDS_OMM_VERS = 2.0
CREATION_DATE  = 
ORIGINATOR     = 

OBJECT_NAME    = STARLINK-35837
OBJECT_ID      = 2025-280V
CENTER_NAME    = EARTH
REF_FRAME      = TEME
TIME_SYSTEM    = UTC
MEAN_ELEMENT_THEORY = SGP/SGP4

EPOCH          = 2025-12-15T06:00:04.999968
MEAN_MOTION    = 15.71832339
ECCENTRICITY   = .00033915
INCLINATION    = 69.9962
RA_OF_ASC_NODE = 191.6756
ARG_OF_PERICENTER = 270.0885
MEAN_ANOMALY   = 326.4022

EPHEMERIS_TYPE = 0
CLASSIFICATION_TYPE = U
NORAD_CAT_ID   = 66840
ELEMENT_SET_NO = 999
REV_AT_EPOCH   = 330
BSTAR          = -.18125532E-1
MEAN_MOTION_DOT = -.2075355E-1
MEAN_MOTION_DDOT = 0

CCSDS_OMM_VERS = 2.0
CREATION_DATE  = 
ORIGINATOR     = 

OBJECT_NAME    = STARLINK-35715
OBJECT_ID      = 2025-280W
CENTER_NAME    = EARTH
REF_FRAME      = TEME
TIME_SYSTEM    = UTC
MEAN_ELEMENT_THEORY = SGP/SGP4

EPOCH          = 2025-12-15T06:00:04.999968
MEAN_MOTION    = 15.71826806
ECCENTRICITY   = .00033083
INCLINATION    = 69.9961
RA_OF_ASC_NODE = 191.6732
ARG_OF_PERICENTER = 271.4202
MEAN_ANOMALY   = 326.9931

EPHEMERIS_TYPE = 0
CLASSIFICATION_TYPE = U
NORAD_CAT_ID   = 66841
ELEMENT_SET_NO = 999
REV_AT_EPOCH   = 330
BSTAR          = -.18099729E-1
MEAN_MOTION_DOT = -.2072241E-1
MEAN_MOTION_DDOT = 0

CCSDS_OMM_VERS = 2.0
CREATION_DATE  = 
ORIGINATOR     = 

OBJECT_NAME    = STARLINK-35769
OBJECT_ID      = 2025-280X
CENTER_NAME    = EARTH
REF_FRAME      = TEME
TIME_SYSTEM    = UTC
MEAN_ELEMENT_THEORY = SGP/SGP4

EPOCH          = 2025-12-15T06:00:04.999968
MEAN_MOTION    = 15.71822722
ECCENTRICITY   = .00033323
INCLINATION    = 69.9963
RA_OF_ASC_NODE = 191.6711
ARG_OF_PERICENTER = 270.1407
MEAN_ANOMALY   = 330.1895

EPHEMERIS_TYPE = 0
CLASSIFICATION_TYPE = U
NORAD_CAT_ID   = 66842
ELEMENT_SET_NO = 999
REV_AT_EPOCH   = 330
BSTAR          = -.18032071E-1
MEAN_MOTION_DOT = -.2065146E-1
MEAN_MOTION_DDOT = 0

CCSDS_OMM_VERS = 2.0
CREATION_DATE  = 
ORIGINATOR     = 

OBJECT_NAME    = STARLINK-35997
OBJECT_ID      = 2025-280Y
CENTER_NAME    = EARTH
REF_FRAME      = TEME
TIME_SYSTEM    = UTC
MEAN_ELEMENT_THEORY = SGP/SGP4

EPOCH          = 2025-12-15T06:00:04.999968
MEAN_MOTION    = 15.71842770
ECCENTRICITY   = .00030747
INCLINATION    = 69.9956
RA_OF_ASC_NODE = 191.6657
ARG_OF_PERICENTER = 269.6376
MEAN_ANOMALY   = 334.5065

EPHEMERIS_TYPE = 0
CLASSIFICATION_TYPE = U
NORAD_CAT_ID   = 66843
ELEMENT_SET_NO = 999
REV_AT_EPOCH   = 330
BSTAR          = -.18199076E-1
MEAN_MOTION_DOT = -.2083207E-1
MEAN_MOTION_DDOT = 0

CCSDS_OMM_VERS = 2.0
CREATION_DATE  = 
ORIGINATOR     = 

OBJECT_NAME    = STARLINK-36073
OBJECT_ID      = 2025-280Z
CENTER_NAME    = EARTH
REF_FRAME      = TEME
TIME_SYSTEM    = UTC
MEAN_ELEMENT_THEORY = SGP/SGP4

EPOCH          = 2025-12-15T06:00:04.999968
MEAN_MOTION    = 15.71842220
ECCENTRICITY   = .00030549
INCLINATION    = 69.9960
RA_OF_ASC_NODE = 191.6685
ARG_OF_PERICENTER = 271.5427
MEAN_ANOMALY   = 330.6856

EPHEMERIS_TYPE = 0
CLASSIFICATION_TYPE = U
NORAD_CAT_ID   = 66844
ELEMENT_SET_NO = 999
REV_AT_EPOCH   = 330
BSTAR          = -.18202038E-1
MEAN_MOTION_DOT = -.2083439E-1
MEAN_MOTION_DDOT = 0

CCSDS_OMM_VERS = 2.0
CREATION_DATE  = 
ORIGINATOR     = 

OBJECT_NAME    = STARLINK-36068
OBJECT_ID      = 2025-280AA
CENTER_NAME    = EARTH
REF_FRAME      = TEME
TIME_SYSTEM    = UTC
MEAN_ELEMENT_THEORY = SGP/SGP4

EPOCH          = 2025-12-15T06:00:04.999968
MEAN_MOTION    = 15.71830256
ECCENTRICITY   = .00031386
INCLINATION    = 69.9955
RA_OF_ASC_NODE = 191.6590
ARG_OF_PERICENTER = 268.6714
MEAN_ANOMALY   = 341.2313

EPHEMERIS_TYPE = 0
CLASSIFICATION_TYPE = U
NORAD_CAT_ID   = 66845
ELEMENT_SET_NO = 999
REV_AT_EPOCH   = 330
BSTAR          = -.18076305E-1
MEAN_MOTION_DOT = -.2069969E-1
MEAN_MOTION_DDOT = 0

CCSDS_OMM_VERS = 2.0
CREATION_DATE  = 
ORIGINATOR     = 

OBJECT_NAME    = STARLINK-36055
OBJECT_ID      = 2025-280AB
CENTER_NAME    = EARTH
REF_FRAME      = TEME
TIME_SYSTEM    = UTC
MEAN_ELEMENT_THEORY = SGP/SGP4

EPOCH          = 2025-12-15T06:00:04.999968
MEAN_MOTION    = 15.71842454
ECCENTRICITY   = .00032619
INCLINATION    = 69.9958
RA_OF_ASC_NODE = 191.6635
ARG_OF_PERICENTER = 266.5365
MEAN_ANOMALY   = 339.5829

EPHEMERIS_TYPE = 0
CLASSIFICATION_TYPE = U
NORAD_CAT_ID   = 66846
ELEMENT_SET_NO = 999
REV_AT_EPOCH   = 330
BSTAR          = -.18761579E-1
MEAN_MOTION_DOT = -.2139636E-1
MEAN_MOTION_DDOT = 0

CCSDS_OMM_VERS = 2.0
CREATION_DATE  = 
ORIGINATOR     = 

OBJECT_NAME    = STARLINK-36061
OBJECT_ID      = 2025-280AC
CENTER_NAME    = EARTH
REF_FRAME      = TEME
TIME_SYSTEM    = UTC
MEAN_ELEMENT_THEORY = SGP/SGP4

EPOCH          = 2025-12-15T06:00:04.999968
MEAN_MOTION    = 15.71834753
ECCENTRICITY   = .00031089
INCLINATION    = 69.9955
RA_OF_ASC_NODE = 191.6615
ARG_OF_PERICENTER = 269.1411
MEAN_ANOMALY   = 338.8416

EPHEMERIS_TYPE = 0
CLASSIFICATION_TYPE = U
NORAD_CAT_ID   = 66847
ELEMENT_SET_NO = 999
REV_AT_EPOCH   = 325
BSTAR          = -.18112502E-1
MEAN_MOTION_DOT = -.2073924E-1
MEAN_MOTION_DDOT = 0

CCSDS_OMM_VERS = 2.0
CREATION_DATE  = 
ORIGINATOR     = 

OBJECT_NAME    = STARLINK-36091
OBJECT_ID      = 2025-281A
CENTER_NAME    = EARTH
REF_FRAME      = TEME
TIME_SYSTEM    = UTC
MEAN_ELEMENT_THEORY = SGP/SGP4

EPOCH          = 2025-12-15T06:00:04.999968
MEAN_MOTION    = 15.84746716
ECCENTRICITY   = .00014953
INCLINATION    = 43.0003
RA_OF_ASC_NODE = 106.8787
ARG_OF_PERICENTER = 274.9444
MEAN_ANOMALY   = 201.3928

EPHEMERIS_TYPE = 0
CLASSIFICATION_TYPE = U
NORAD_CAT_ID   = 66848
ELEMENT_SET_NO = 999
REV_AT_EPOCH   = 180
BSTAR          = -.53791362E-2
MEAN_MOTION_DOT = -.1153814E-1
MEAN_MOTION_DDOT = 0

