STARLINK-35729          
1 66837U 25280S   25349.25005787 -.02073379  00000+0 -18109-1 0  9996
2 66837  69.9959 191.6823 0003379 269.8792 320.8661 15.71828932  3302
STARLINK-35886          
1 66838U 25280T   25349.25005787 -.02066003  00000+0 -18041-1 0  9998
2 66838  69.9959 191.6775 0003292 270.7365 323.8451 15.71822479  3300
STARLINK-35717          
1 66839U 25280U   25349.25005787 -.02077672  00000+0 -18145-1 0  9998
2 66839  69.9960 191.6796 0003561 269.4895 323.1661 15.71834617  3301
STARLINK-35837          
1 66840U 25280V   25349.25005787 -.02075355  00000+0 -18126-1 0  9995
2 66840  69.9962 191.6756 0003391 270.0885 326.4022 15.71832339  3305
STARLINK-35715          
1 66841U 25280W   25349.25005787 -.02072241  00000+0 -18100-1 0  9999
2 66841  69.9961 191.6732 0003308 271.4202 326.9931 15.71826806  3301
STARLINK-35769          
1 66842U 25280X   25349.25005787 -.02065146  00000+0 -18032-1 0  9990
2 66842  69.9963 191.6711 0003332 270.1407 330.1895 15.71822722  3300
STARLINK-35997          
1 66843U 25280Y   25349.25005787 -.02083207  00000+0 -18199-1 0  9993
2 66843  69.9956 191.6657 0003074 269.6376 334.5065 15.71842770  3305
STARLINK-36073          
1 66844U 25280Z   25349.25005787 -.02083439  00000+0 -18202-1 0  9996
2 66844  69.9960 191.6685 0003054 271.5427 330.6856 15.71842220  3304
STARLINK-36068          
1 66845U 25280AA  25349.25005787 -.02069969  00000+0 -18076-1 0  9998
2 66845  69.9955 191.6590 0003138 268.6714 341.2313 15.71830256  3305
STARLINK-36055          
1 66846U 25280AB  25349.25005787 -.02139636  00000+0 -18762-1 0  9990
2 66846  69.9958 191.6635 0003261 266.5365 339.5829 15.71842454  3300
STARLINK-36061          
1 66847U 25280AC  25349.25005787 -.02073924  00000+0 -18113-1 0  9998
2 66847  69.9955 191.6615 0003108 269.1411 338.8416 15.71834753  3258
STARLINK-36091          
1 66848U 25281A   25349.25005787 -.01153814  00000+0 -53791-2 0  9998
2 66848  43.0003 106.8787 0001495 274.9444 201.3928 15.84746716  1807
